{
  "type": "FeatureCollection",
  "features": [
    {
      "type": "Feature",
      "properties": {
        "name": "Baltic Cable",
        "country": "Sweden-Germany",
        "type": "HVDC"
      },
      "geometry": {
        "type": "LineString",
        "coordinates": [
          [12.75, 55.85],
          [13.10, 55.65],
          [13.55, 55.25],
          [14.15, 54.70],
          [14.30, 54.20]
        ]
      }
    },
    {
      "type": "Feature",
      "properties": {
        "name": "SwePol Link",
        "country": "Sweden-Poland",
        "type": "HVDC"
      },
      "geometry": {
        "type": "LineString",
        "coordinates": [
          [16.20, 56.15],
          [17.10, 55.90],
          [18.00, 55.60],
          [18.60, 55.00],
          [18.95, 54.55]
        ]
      }
    },
    {
      "type": "Feature",
      "properties": {
        "name": "NordBalt",
        "country": "Sweden-Lithuania",
        "type": "HVDC"
      },
      "geometry": {
        "type": "LineString",
        "coordinates": [
          [16.05, 56.45],
          [17.40, 56.25],
          [18.80, 56.05],
          [20.10, 55.90],
          [21.10, 55.72]
        ]
      }
    },
    {
      "type": "Feature",
      "properties": {
        "name": "EstLink 1",
        "country": "Finland-Estonia",
        "type": "HVDC"
      },
      "geometry": {
        "type": "LineString",
        "coordinates": [
          [24.10, 59.65],
          [24.60, 59.85],
          [25.10, 60.10],
          [25.35, 60.30]
        ]
      }
    },
    {
      "type": "Feature",
      "properties": {
        "name": "EstLink 2",
        "country": "Finland-Estonia",
        "type": "HVDC"
      },
      "geometry": {
        "type": "LineString",
        "coordinates": [
          [24.55, 59.45],
          [24.90, 59.70],
          [25.25, 59.95],
          [25.60, 60.20]
        ]
      }
    },
    {
      "type": "Feature",
      "properties": {
        "name": "Fenno-Skan 1",
        "country": "Sweden-Finland",
        "type": "HVDC"
      },
      "geometry": {
        "type": "LineString",
        "coordinates": [
          [20.20, 63.50],
          [20.90, 63.30],
          [21.60, 63.10],
          [22.30, 63.00]
        ]
      }
    },
    {
      "type": "Feature",
      "properties": {
        "name": "Fenno-Skan 2",
        "country": "Sweden-Finland",
        "type": "HVDC"
      },
      "geometry": {
        "type": "LineString",
        "coordinates": [
          [20.50, 63.25],
          [21.10, 63.10],
          [21.70, 62.95],
          [22.40, 62.85]
        ]
      }
    },
    {
      "type": "Feature",
      "properties": {
        "name": "Gotlandslänken 1",
        "country": "Sweden-Gotland",
        "type": "HVDC"
      },
      "geometry": {
        "type": "LineString",
        "coordinates": [
          [16.65, 57.20],
          [17.15, 57.35],
          [17.75, 57.50],
          [18.30, 57.65]
        ]
      }
    },
    {
      "type": "Feature",
      "properties": {
        "name": "Gotlandslänken 2",
        "country": "Sweden-Gotland",
        "type": "HVDC"
      },
      "geometry": {
        "type": "LineString",
        "coordinates": [
          [16.55, 57.05],
          [17.10, 57.25],
          [17.65, 57.40],
          [18.20, 57.48]
        ]
      }
    },
    {
      "type": "Feature",
      "properties": {
        "name": "Gotlandslänken 3",
        "country": "Sweden-Gotland",
        "type": "HVDC"
      },
      "geometry": {
        "type": "LineString",
        "coordinates": [
          [16.70, 57.10],
          [17.30, 57.30],
          [17.90, 57.45],
          [18.35, 57.60]
        ]
      }
    }
  ]
}
